     2              NAVIGATION DATA                         RINEX VERSION / TYPE
CCRINEXN V1.6.0 UX  CDDIS               26-FEB-19 22:30     PGM / RUN BY / DATE 
IGS BROADCAST EPHEMERIS FILE                                COMMENT             
    0.9313D-08  0.0000D+00 -0.5960D-07  0.0000D+00          ION ALPHA           
    0.9011D+05  0.0000D+00 -0.1966D+06  0.0000D+00          ION BETA            
    0.279396772385D-08 0.976996261670D-14   405504     2042 DELTA-UTC: A0,A1,T,W
    18                                                      LEAP SECONDS        
                                                            END OF HEADER       
20 19  2 26  2  0  0.0 0.522572547197D-03 0.341060513165D-12 0.000000000000D+00
    0.470000000000D+02-0.190312500000D+02 0.545486988912D-08 0.784853884726D+00
   -0.124797224998D-05 0.439797842409D-02 0.653229653835D-05 0.515366861534D+04
    0.180000000000D+06 0.689178705216D-07-0.426305845852D+00-0.670552253723D-07
    0.930334700609D+00 0.238468750000D+03 0.229125146926D+01-0.857035686863D-08
    0.167864142725D-10 0.100000000000D+01 0.204200000000D+04 0.000000000000D+00
    0.200000000000D+01 0.000000000000D+00-0.838190317154D-08 0.470000000000D+02
    0.172830000000D+06 0.000000000000D+00 0.000000000000D+00 0.000000000000D+00
21 19  2 26  2  0  0.0-0.243108719587D-03 0.727595761418D-11 0.000000000000D+00
    0.520000000000D+02-0.158437500000D+02 0.495449208877D-08-0.663261561403D+00
   -0.812113285065D-06 0.247797776246D-01 0.934489071369D-05 0.515378984451D+04
    0.180000000000D+06-0.346451997757D-06-0.141213201502D+01 0.912696123123D-07
    0.947083561923D+00 0.196562500000D+03-0.147236373900D+01-0.873357807430D-08
    0.328942273195D-09 0.100000000000D+01 0.204200000000D+04 0.000000000000D+00
    0.200000000000D+01 0.000000000000D+00-0.102445483208D-07 0.520000000000D+02
    0.172818000000D+06 0.400000000000D+01 0.000000000000D+00 0.000000000000D+00
22 19  2 26  2  0  0.0-0.653019640595D-03-0.784439180279D-11 0.000000000000D+00
    0.960000000000D+02-0.182500000000D+02 0.546165601634D-08 0.250932544745D+01
   -0.985339283943D-06 0.720819190610D-02 0.662170350552D-05 0.515356629372D+04
    0.180000000000D+06 0.968575477600D-07-0.377341241892D+00-0.260770320892D-07
    0.927082932154D+00 0.230281250000D+03-0.141324937137D+01-0.839034974831D-08
    0.364300881128D-10 0.100000000000D+01 0.204200000000D+04 0.000000000000D+00
    0.200000000000D+01 0.000000000000D+00-0.181607902050D-07 0.960000000000D+02
    0.172830000000D+06 0.000000000000D+00 0.000000000000D+00 0.000000000000D+00
24 19  2 26  2  0  0.0-0.626593828201D-04-0.568434188608D-12 0.000000000000D+00
    0.129000000000D+03 0.659375000000D+02 0.498270754977D-08 0.139354783374D+01
    0.337883830071D-05 0.821315380745D-02 0.832229852676D-05 0.515372979927D+04
    0.180000000000D+06-0.763684511185D-07 0.173685682761D+01 0.875443220139D-07
    0.938991591489D+00 0.207187500000D+03 0.596786838910D+00-0.835677666472D-08
   -0.582167106740D-10 0.100000000000D+01 0.204200000000D+04 0.000000000000D+00
    0.282842707634D+01 0.000000000000D+00 0.279396772385D-08 0.129000000000D+03
    0.000000000000D+00 0.400000000000D+01 0.000000000000D+00 0.000000000000D+00
25 19  2 26  2  0  0.0-0.725643243641D-03-0.522959453519D-11 0.000000000000D+00
    0.830000000000D+02 0.250937500000D+02 0.459912014324D-08-0.551684116315D+00
    0.147894024849D-05 0.826451228932D-02 0.457465648651D-05 0.515374714661D+04
    0.180000000000D+06 0.707805156708D-07 0.283643567816D+01 0.931322574615D-07
    0.971448039750D+00 0.300031250000D+03 0.860250309678D+00-0.834177603988D-08
    0.310727228751D-10 0.100000000000D+01 0.204200000000D+04 0.000000000000D+00
    0.200000000000D+01 0.000000000000D+00 0.558793544769D-08 0.830000000000D+02
    0.172818000000D+06 0.400000000000D+01 0.000000000000D+00 0.000000000000D+00
26 19  2 26  2  0  0.0 0.134463887662D-03 0.102318153950D-10 0.000000000000D+00
    0.660000000000D+02 0.343437500000D+02 0.494806324955D-08-0.123048839380D+01
    0.159628689289D-05 0.367979856674D-02 0.413320958614D-05 0.515355856514D+04
    0.180000000000D+06 0.558793544769D-08 0.280954035060D+01-0.856816768646D-07
    0.952780132740D+00 0.292406250000D+03 0.115944883147D+00-0.848178187169D-08
    0.860750139413D-10 0.100000000000D+01 0.204200000000D+04 0.000000000000D+00
    0.200000000000D+01 0.000000000000D+00 0.745058059692D-08 0.660000000000D+02
    0.172818000000D+06 0.400000000000D+01 0.000000000000D+00 0.000000000000D+00
27 19  2 26  2  0  0.0-0.749318860471D-04-0.761701812735D-11 0.000000000000D+00
    0.850000000000D+02-0.584687500000D+02 0.419874632321D-08-0.300221383286D+01
   -0.303611159325D-05 0.674743577838D-02 0.722520053387D-05 0.515363773727D+04
    0.180000000000D+06-0.651925802231D-07-0.240620356939D+01-0.782310962677D-07
    0.978492663244D+00 0.250343750000D+03 0.434581016055D+00-0.792247285994D-08
   -0.113933317209D-09 0.100000000000D+01 0.204200000000D+04 0.000000000000D+00
    0.280000000000D+01 0.000000000000D+00 0.139698386192D-08 0.850000000000D+02
    0.172818000000D+06 0.400000000000D+01 0.000000000000D+00 0.000000000000D+00
28 19  2 26  2  0  0.0 0.765352509916D-03 0.795807864051D-12 0.000000000000D+00
    0.830000000000D+02 0.309375000000D+02 0.406945543929D-08-0.217447148225D+01
    0.188313424587D-05 0.192458808888D-01 0.463612377644D-05 0.515370236397D+04
    0.180000000000D+06 0.225380063057D-06 0.292251886013D+01 0.253319740295D-06
    0.983312198580D+00 0.296593750000D+03-0.147199909643D+01-0.773175035107D-08
    0.864321739180D-10 0.100000000000D+01 0.204200000000D+04 0.000000000000D+00
    0.280000000000D+01 0.000000000000D+00-0.111758708954D-07 0.830000000000D+02
    0.172830000000D+06 0.000000000000D+00 0.000000000000D+00 0.000000000000D+00
29 19  2 26  2  0  0.0 0.262057874352D-03-0.875388650456D-11 0.000000000000D+00
    0.380000000000D+02-0.460625000000D+02 0.412552898770D-08-0.218822752771D+01
   -0.236928462982D-05 0.739515759051D-03 0.736862421036D-05 0.515355927658D+04
    0.180000000000D+06-0.204890966415D-07-0.233958766359D+01 0.577419996262D-07
    0.985343435464D+00 0.252187500000D+03 0.145309987867D+01-0.790818655057D-08
   -0.535736601294D-10 0.100000000000D+01 0.204200000000D+04 0.000000000000D+00
    0.200000000000D+01 0.000000000000D+00-0.102445483208D-07 0.380000000000D+02
    0.172818000000D+06 0.400000000000D+01 0.000000000000D+00 0.000000000000D+00
30 19  2 26  2  0  0.0-0.589773990214D-04-0.648014975013D-11 0.000000000000D+00
    0.660000000000D+02 0.554375000000D+02 0.492841945032D-08 0.495754018099D+00
    0.295601785183D-05 0.367971544620D-02 0.825151801109D-05 0.515362266922D+04
    0.180000000000D+06 0.707805156708D-07 0.183083819163D+01 0.614672899246D-07
    0.941356069407D+00 0.209718750000D+03-0.302177464655D+01-0.830070323587D-08
    0.621454485095D-10 0.100000000000D+01 0.204200000000D+04 0.000000000000D+00
    0.200000000000D+01 0.000000000000D+00 0.372529029846D-08 0.660000000000D+02
    0.172830000000D+06 0.000000000000D+00 0.000000000000D+00 0.000000000000D+00
31 19  2 26  2  0  0.0 0.560418702662D-04-0.272848410532D-11 0.000000000000D+00
    0.940000000000D+02 0.748750000000D+02 0.448590114150D-08 0.812595138821D-01
    0.402517616749D-05 0.926221895497D-02 0.851601362228D-05 0.515357167435D+04
    0.180000000000D+06 0.139698386192D-06 0.181498904249D+01-0.428408384323D-07
    0.960433985542D+00 0.212562500000D+03-0.117524152953D-01-0.820355599675D-08
    0.113933317209D-09 0.100000000000D+01 0.204200000000D+04 0.000000000000D+00
    0.280000000000D+01 0.000000000000D+00-0.135041773319D-07 0.940000000000D+02
    0.172818000000D+06 0.400000000000D+01 0.000000000000D+00 0.000000000000D+00
32 19  2 26  2  0  0.0-0.208359211683D-03 0.189857018995D-10 0.000000000000D+00
    0.140000000000D+02-0.418750000000D+01 0.448768693017D-08-0.227684268146D+01
   -0.195577740669D-06 0.262501148973D-02 0.939704477787D-05 0.515375733376D+04
    0.180000000000D+06-0.130385160446D-07 0.730836939572D+00-0.204890966415D-07
    0.956951491499D+00 0.196687500000D+03-0.260654022763D+01-0.790532928870D-08
   -0.182507602174D-09 0.100000000000D+01 0.204200000000D+04 0.000000000000D+00
    0.200000000000D+01 0.000000000000D+00 0.465661287308D-09 0.140000000000D+02
    0.172818000000D+06 0.400000000000D+01 0.000000000000D+00 0.000000000000D+00
 6 19  2 26  3 59 44.0 0.267573632300D-03-0.841282599140D-11 0.000000000000D+00
    0.140000000000D+02-0.386250000000D+02 0.429232160926D-08 0.233893171600D+01
   -0.180862843990D-05 0.149718101602D-02 0.818818807602D-05 0.515380092239D+04
    0.187184000000D+06 0.707805156708D-07-0.135865870925D+01-0.558793544769D-07
    0.973950143150D+00 0.226218750000D+03-0.115747133342D+01-0.790925813732D-08
    0.135362776543D-09 0.100000000000D+01 0.204200000000D+04 0.000000000000D+00
    0.200000000000D+01 0.000000000000D+00 0.465661287308D-08 0.140000000000D+02
    0.180030000000D+06 0.000000000000D+00 0.000000000000D+00 0.000000000000D+00
 7 19  2 26  3 59 44.0 0.254488550127D-04-0.727595761418D-11 0.000000000000D+00
    0.000000000000D+00 0.665000000000D+02 0.454840374499D-08 0.153066397663D+01
    0.352784991264D-05 0.122465927852D-01 0.937655568123D-05 0.515361289215D+04
    0.187184000000D+06-0.193715095520D-06 0.180124295074D+01 0.109896063805D-06
    0.955859288565D+00 0.196718750000D+03-0.247598180375D+01-0.820962767823D-08
   -0.850035407387D-10 0.100000000000D+01 0.204200000000D+04 0.000000000000D+00
    0.200000000000D+01 0.000000000000D+00-0.111758708954D-07 0.000000000000D+00
    0.186576000000D+06 0.400000000000D+01 0.000000000000D+00 0.000000000000D+00
